{"type": "FeatureCollection", "features": [ {"type": "Feature", "properties": {"norad_id": 66559, "name": "STARLINK-35419", "group": "last-30-days", "lat": -30.440651771631185, "lon": -45.8416987553867, "alt_km": 415.8537045412786, "timestamp": "2025-12-17T04:57:43.202585+00:00", "meta": {"OBJECT_NAME": "STARLINK-35419", "OBJECT_ID": "2025-268C", "EPOCH": "2025-12-16T14:04:15.307392", "MEAN_MOTION": 15.50668121, "ECCENTRICITY": 0.00028449, "INCLINATION": 43.0017, "RA_OF_ASC_NODE": 98.6952, "ARG_OF_PERICENTER": 266.1246, "MEAN_ANOMALY": 93.9289, "EPHEMERIS_TYPE": 0, "CLASSIFICATION_TYPE": "U", "NORAD_CAT_ID": 66559, "ELEMENT_SET_NO": 999, "REV_AT_EPOCH": 522, "BSTAR": 0.0010693417, "MEAN_MOTION_DOT": 0.00063105, "MEAN_MOTION_DDOT": 0}, "tle": {"line1": "1 66559U 25268C   25350.58628828  .00063105  00000+0  10693-2 0  9991", "line2": "2 66559  43.0017  98.6952 0002844 266.1246  93.9289 15.50668121  5226"}}, "geometry": {"type": "Point", "coordinates": [-45.8416987553867, -30.440651771631185]}}, {"type": "Feature", "properties": {"norad_id": 66560, "name": "STARLINK-35411", "group": "last-30-days", "lat": -31.317314998321073, "lon": -44.17920590301611, "alt_km": 416.74877862030735, "timestamp": "2025-12-17T04:57:43.202595+00:00", "meta": {"OBJECT_NAME": "STARLINK-35411", "OBJECT_ID": "2025-268D", "EPOCH": "2025-12-16T14:03:46.391040", "MEAN_MOTION": 15.50572563, "ECCENTRICITY": 0.00016362, "INCLINATION": 43.0003, "RA_OF_ASC_NODE": 98.6913, "ARG_OF_PERICENTER": 264.1834, "MEAN_ANOMALY": 95.884, "EPHEMERIS_TYPE": 0, "CLASSIFICATION_TYPE": "U", "NORAD_CAT_ID": 66560, "ELEMENT_SET_NO": 999, "REV_AT_EPOCH": 522, "BSTAR": 0.0010681083, "MEAN_MOTION_DOT": 0.00062809, "MEAN_MOTION_DDOT": 0}, "tle": {"line1": "1 66560U 25268D   25350.58595360  .00062809  00000+0  10681-2 0  9994", "line2": "2 66560  43.0003  98.6913 0001636 264.1834  95.8840 15.50572563  5227"}}, "geometry": {"type": "Point", "coordinates": [-44.17920590301611, -31.317314998321073]}}, {"type": "Feature", "properties": {"norad_id": 66561, "name": "STARLINK-35305", "group": "last-30-days", "lat": -33.169900628098056, "lon": -40.410369340439146, "alt_km": 416.6156920943622, "timestamp": "2025-12-17T04:57:43.202604+00:00", "meta": {"OBJECT_NAME": "STARLINK-35305", "OBJECT_ID": "2025-268E", "EPOCH": "2025-12-16T14:02:49.165728", "MEAN_MOTION": 15.50574433, "ECCENTRICITY": 0.00021576, "INCLINATION": 43.0016, "RA_OF_ASC_NODE": 98.6865, "ARG_OF_PERICENTER": 270.5914, "MEAN_ANOMALY": 89.4699, "EPHEMERIS_TYPE": 0, "CLASSIFICATION_TYPE": "U", "NORAD_CAT_ID": 66561, "ELEMENT_SET_NO": 999, "REV_AT_EPOCH": 522, "BSTAR": 0.0010950416, "MEAN_MOTION_DOT": 0.00064421, "MEAN_MOTION_DDOT": 0}, "tle": {"line1": "1 66561U 25268E   25350.58529127  .00064421  00000+0  10950-2 0  9994", "line2": "2 66561  43.0016  98.6865 0002157 270.5914  89.4699 15.50574433  5226"}}, "geometry": {"type": "Point", "coordinates": [-40.410369340439146, -33.169900628098056]}}, {"type": "Feature", "properties": {"norad_id": 66562, "name": "STARLINK-35579", "group": "last-30-days", "lat": -32.31928697939705, "lon": -42.189313280377775, "alt_km": 416.90379561246937, "timestamp": "2025-12-17T04:57:43.202613+00:00", "meta": {"OBJECT_NAME": "STARLINK-35579", "OBJECT_ID": "2025-268F", "EPOCH": "2025-12-16T14:03:18.669600", "MEAN_MOTION": 15.50651892, "ECCENTRICITY": 0.00012368, "INCLINATION": 43.0017, "RA_OF_ASC_NODE": 98.6894, "ARG_OF_PERICENTER": 276.1829, "MEAN_ANOMALY": 83.8891, "EPHEMERIS_TYPE": 0, "CLASSIFICATION_TYPE": "U", "NORAD_CAT_ID": 66562, "ELEMENT_SET_NO": 999, "REV_AT_EPOCH": 522, "BSTAR": 0.00099428534, "MEAN_MOTION_DOT": 0.00058578, "MEAN_MOTION_DDOT": 0}, "tle": {"line1": "1 66562U 25268F   25350.58563275  .00058578  00000+0  99429-3 0  9992", "line2": "2 66562  43.0017  98.6894 0001236 276.1829  83.8891 15.50651892  5221"}}, "geometry": {"type": "Point", "coordinates": [-42.189313280377775, -32.31928697939705]}}, {"type": "Feature", "properties": {"norad_id": 66563, "name": "STARLINK-35437", "group": "last-30-days", "lat": -34.13329371524939, "lon": -38.28438107613683, "alt_km": 416.17274539623577, "timestamp": "2025-12-17T04:57:43.202622+00:00", "meta": {"OBJECT_NAME": "STARLINK-35437", "OBJECT_ID": "2025-268G", "EPOCH": "2025-12-16T14:02:18.360672", "MEAN_MOTION": 15.50586843, "ECCENTRICITY": 0.0002788, "INCLINATION": 43.002, "RA_OF_ASC_NODE": 98.6827, "ARG_OF_PERICENTER": 267.1321, "MEAN_ANOMALY": 92.922, "EPHEMERIS_TYPE": 0, "CLASSIFICATION_TYPE": "U", "NORAD_CAT_ID": 66563, "ELEMENT_SET_NO": 999, "REV_AT_EPOCH": 522, "BSTAR": 0.0012272326, "MEAN_MOTION_DOT": 0.00072348, "MEAN_MOTION_DDOT": 0}, "tle": {"line1": "1 66563U 25268G   25350.58493473  .00072348  00000+0  12272-2 0  9996", "line2": "2 66563  43.0020  98.6827 0002788 267.1321  92.9220 15.50586843  5222"}}, "geometry": {"type": "Point", "coordinates": [-38.28438107613683, -34.13329371524939]}}, {"type": "Feature", "properties": {"norad_id": 66564, "name": "STARLINK-35358", "group": "last-30-days", "lat": -34.99678403341503, "lon": -36.25732415348574, "alt_km": 416.4014610880895, "timestamp": "2025-12-17T04:57:43.202631+00:00", "meta": {"OBJECT_NAME": "STARLINK-35358", "OBJECT_ID": "2025-268H", "EPOCH": "2025-12-16T14:01:49.179936", "MEAN_MOTION": 15.50594418, "ECCENTRICITY": 0.00027116, "INCLINATION": 43.001, "RA_OF_ASC_NODE": 98.6796, "ARG_OF_PERICENTER": 274.7611, "MEAN_ANOMALY": 85.2939, "EPHEMERIS_TYPE": 0, "CLASSIFICATION_TYPE": "U", "NORAD_CAT_ID": 66564, "ELEMENT_SET_NO": 999, "REV_AT_EPOCH": 522, "BSTAR": 0.0010025673, "MEAN_MOTION_DOT": 0.00058955, "MEAN_MOTION_DDOT": 0}, "tle": {"line1": "1 66564U 25268H   25350.58459699  .00058955  00000+0  10026-2 0  9992", "line2": "2 66564  43.0010  98.6796 0002711 274.7611  85.2939 15.50594418  5228"}}, "geometry": {"type": "Point", "coordinates": [-36.25732415348574, -34.99678403341503]}}, {"type": "Feature", "properties": {"norad_id": 66565, "name": "STARLINK-35893", "group": "last-30-days", "lat": -35.85792799755609, "lon": -34.11060653244529, "alt_km": 416.23839638511527, "timestamp": "2025-12-17T04:57:43.202641+00:00", "meta": {"OBJECT_NAME": "STARLINK-35893", "OBJECT_ID": "2025-268J", "EPOCH": "2025-12-16T14:01:19.435008", "MEAN_MOTION": 15.50602866, "ECCENTRICITY": 0.00028488, "INCLINATION": 43.0027, "RA_OF_ASC_NODE": 98.6769, "ARG_OF_PERICENTER": 273.0257, "MEAN_ANOMALY": 87.0278, "EPHEMERIS_TYPE": 0, "CLASSIFICATION_TYPE": "U", "NORAD_CAT_ID": 66565, "ELEMENT_SET_NO": 999, "REV_AT_EPOCH": 522, "BSTAR": 0.0011705627, "MEAN_MOTION_DOT": 0.00069002, "MEAN_MOTION_DDOT": 0}, "tle": {"line1": "1 66565U 25268J   25350.58425272  .00069002  00000+0  11706-2 0  9994", "line2": "2 66565  43.0027  98.6769 0002848 273.0257  87.0278 15.50602866  5229"}}, "geometry": {"type": "Point", "coordinates": [-34.11060653244529, -35.85792799755609]}}, {"type": "Feature", "properties": {"norad_id": 66566, "name": "STARLINK-35871", "group": "last-30-days", "lat": -36.687588291294176, "lon": -31.888267283604907, "alt_km": 416.77399335621703, "timestamp": "2025-12-17T04:57:43.202650+00:00", "meta": {"OBJECT_NAME": "STARLINK-35871", "OBJECT_ID": "2025-268K", "EPOCH": "2025-12-16T14:00:49.849056", "MEAN_MOTION": 15.50598861, "ECCENTRICITY": 0.00016367, "INCLINATION": 43.0013, "RA_OF_ASC_NODE": 98.6744, "ARG_OF_PERICENTER": 272.208, "MEAN_ANOMALY": 87.8592, "EPHEMERIS_TYPE": 0, "CLASSIFICATION_TYPE": "U", "NORAD_CAT_ID": 66566, "ELEMENT_SET_NO": 999, "REV_AT_EPOCH": 522, "BSTAR": 0.0018059727, "MEAN_MOTION_DOT": 0.00107144, "MEAN_MOTION_DDOT": 0}, "tle": {"line1": "1 66566U 25268K   25350.58391029  .00107144  00000+0  18060-2 0  9997", "line2": "2 66566  43.0013  98.6744 0001636 272.2080  87.8592 15.50598861  5223"}}, "geometry": {"type": "Point", "coordinates": [-31.888267283604907, -36.687588291294176]}}, {"type": "Feature", "properties": {"norad_id": 66567, "name": "STARLINK-35825", "group": "last-30-days", "lat": -37.518789069198014, "lon": -29.488983502899597, "alt_km": 416.48702523441625, "timestamp": "2025-12-17T04:57:43.202660+00:00", "meta": {"OBJECT_NAME": "STARLINK-35825", "OBJECT_ID": "2025-268L", "EPOCH": "2025-12-16T14:00:20.188800", "MEAN_MOTION": 15.50672889, "ECCENTRICITY": 0.00016137, "INCLINATION": 43.0007, "RA_OF_ASC_NODE": 98.6721, "ARG_OF_PERICENTER": 261.1779, "MEAN_ANOMALY": 98.8899, "EPHEMERIS_TYPE": 0, "CLASSIFICATION_TYPE": "U", "NORAD_CAT_ID": 66567, "ELEMENT_SET_NO": 999, "REV_AT_EPOCH": 522, "BSTAR": 0.0018347467, "MEAN_MOTION_DOT": 0.00109173, "MEAN_MOTION_DDOT": 0}, "tle": {"line1": "1 66567U 25268L   25350.58356700  .00109173  00000+0  18347-2 0  9997", "line2": "2 66567  43.0007  98.6721 0001613 261.1779  98.8899 15.50672889  5224"}}, "geometry": {"type": "Point", "coordinates": [-29.488983502899597, -37.518789069198014]}}, {"type": "Feature", "properties": {"norad_id": 66568, "name": "STARLINK-35803", "group": "last-30-days", "lat": -38.232933162762464, "lon": -27.25989951323605, "alt_km": 416.26362408963996, "timestamp": "2025-12-17T04:57:43.202670+00:00", "meta": {"OBJECT_NAME": "STARLINK-35803", "OBJECT_ID": "2025-268M", "EPOCH": "2025-12-16T13:59:50.614080", "MEAN_MOTION": 15.50670035, "ECCENTRICITY": 0.00019658, "INCLINATION": 43.0008, "RA_OF_ASC_NODE": 98.6687, "ARG_OF_PERICENTER": 257.8965, "MEAN_ANOMALY": 102.1675, "EPHEMERIS_TYPE": 0, "CLASSIFICATION_TYPE": "U", "NORAD_CAT_ID": 66568, "ELEMENT_SET_NO": 999, "REV_AT_EPOCH": 522, "BSTAR": 0.0018595196, "MEAN_MOTION_DOT": 0.00110663, "MEAN_MOTION_DDOT": 0}, "tle": {"line1": "1 66568U 25268M   25350.58322470  .00110663  00000+0  18595-2 0  9996", "line2": "2 66568  43.0008  98.6687 0001965 257.8965 102.1675 15.50670035  5228"}}, "geometry": {"type": "Point", "coordinates": [-27.25989951323605, -38.232933162762464]}}]}